KAITUO 1B               
1 40912U 15049P   18026.62153429  .00001285  00000-0  65619-4 0  9991
2 40912  97.4513  35.9828 0016571 138.7646 343.8405 15.18400270130185
TIANWANG 1C (TW-1C)     
1 40926U 15051B   18026.82240991  .00006822  00000-0  13758-3 0  9990
2 40926  97.2029  69.9051 0012642  77.4677  10.2626 15.46779716131448
TIANWANG 1B (TW-1B)     
1 40927U 15051C   18026.54206795  .00006832  00000-0  14343-3 0  9996
2 40927  97.2115  69.5354 0012445  87.7189  16.4212 15.45601554131329
TIANWANG 1A (TW-1A)     
1 40928U 15051D   18026.53635691  .00002934  00000-0  80802-4 0  9990
2 40928  97.2028  63.2668 0014018 109.5529  26.6991 15.37851419131001
LAPAN-A2 (IO-86)        
1 40931U 15052B   18026.55175240  .00000501  00000-0 -19222-4 0  9993
2 40931   5.9999  80.0246 0012358 165.3096 194.8684 14.76561000126031
LQSAT                   
1 40958U 15057A   18026.53436472  .00000022  00000-0  11135-4 0  9994
2 40958  97.9562 102.6903 0019770  72.4693 287.8674 14.73013155123998
CHUBUSAT-2              
1 41338U 16012B   18026.56892406  .00000340  00000-0  19877-4 0  9999
2 41338  31.0031 133.3637 0013751 110.8331 249.3778 14.99909825106552
CHUBUSAT-3              
1 41339U 16012C   18026.46751860  .00000342  00000-0  19974-4 0  9997
2 41339  31.0074 132.8078 0013397 116.6124 243.5882 15.00101847106523
OUFTI-1                 
1 41458U 16025C   18026.76803349  .00001553  00000-0  85897-4 0  9998
2 41458  98.1538  81.9602 0170341 261.6988  96.4883 15.04180804 96172
E-ST@R-II               
1 41459U 16025D   18026.61828740  .00002020  00000-0  11068-3 0  9993
2 41459  98.1564  81.6949 0170979 262.6177  95.5582 15.03961067 96141
AAUSAT 4                
1 41460U 16025E   18026.72322189  .00001540  00000-0  85211-4 0  9991
2 41460  98.1498  82.1073 0161966 259.2740  99.0185 15.05208430 96202
NUSAT 1 (LO-87)         
1 41557U 16033B   18026.79286447  .00001216  00000-0  47309-4 0  9996
2 41557  97.4466 111.2350 0012460 300.9554  59.0460 15.27942578 92568
BEESAT-4                
1 41619U 16040W   18026.64252592  .00001353  00000-0  62787-4 0  9990
2 41619  97.4348  91.6442 0011970  14.5925 345.5655 15.21692863 76568
PRATHAM                 
1 41783U 16059A   18026.69102173  .00000034  00000-0  15979-4 0  9992
2 41783  98.1383  90.3969 0033776 177.7208 182.4154 14.62896519 71274
ALSAT 1N                
1 41789U 16059G   18026.76708475  .00000091  00000-0  26371-4 0  9994
2 41789  98.1378  91.4101 0028557 169.4010 190.7796 14.64122239 71327
NAYIF-1 (EO-88)         
1 42017U 17008BX  18026.88339126  .00001450  00000-0  62839-4 0  9999
2 42017  97.4674  92.6859 0007391 145.7113 214.4602 15.23979926 52542
LILACSAT-1              
1 42725U 98067ME  18026.90233427  .00019377  00000-0  21283-3 0  9993
2 42725  51.6382 355.2171 0006066  66.2573 293.9057 15.63199177 38384
MAX VALIER SAT          
1 42778U 17036P   18026.61810496  .00000938  00000-0  45357-4 0  9995
2 42778  97.4238  88.5584 0012305 198.7348 161.3436 15.20998454 32985
FOX-1B (AO-91)          
1 43017U 17073E   18026.37850618  .00001081  00000-0  90299-4 0  9991
2 43017  97.6982 323.5190 0260920  13.5316 347.2717 14.77862707 10167
FOX-1D (AO-92)          
1 43137U 18004AC  18026.73137396  .00000982  00000-0  45630-4 0  9998
2 43137  97.5539  88.9234 0008392 228.9931 131.0580 15.22387394  2181
